ONEWEB-0624             
1 55165U 23004AB  23244.25001157  .00000015  00000+0  00000+0 0  9991
2 55165  87.6878 193.5660 0002697 349.5554   6.9176 13.52676133 34213
ONEWEB-0625             
1 55166U 23004AC  23243.88863469  .00000420  00000+0  86099-3 0  9998
2 55166  87.9573 208.6385 0002084  75.4731 284.6639 13.30721005 33193
ONEWEB-0626             
1 55167U 23004AD  23243.37508995 -.00000032  00000+0 -96054-4 0  9997
2 55167  87.9717 208.7061 0002678  95.3106 264.8338 13.30956001 33138
ONEWEB-0627             
1 55168U 23004AE  23244.15262562 -.00000138  00000+0 -31974-3 0  9998
2 55168  87.9580 208.5907 0002431  58.8954 301.2423 13.30819851 33239
ONEWEB-0628             
1 55169U 23004AF  23244.25001157  .00000014  00000+0  00000+0 0  9994
2 55169  87.6858 193.6271 0006010 181.6560 217.9076 13.46953633 34207
ONEWEB-0629             
1 55170U 23004AG  23243.96421896  .00002022  00000+0  42400-2 0  9993
2 55170  87.9726 208.5901 0002640 111.5403 248.6018 13.30960731 33212
ONEWEB-0631             
1 55171U 23004AH  23242.57828564  .00001214  00000+0  21703-3 0  9999
2 55171  86.6347 188.8005 0002616 110.1731 249.9765 14.66115373 34303
ONEWEB-0709             
1 55172U 23004AJ  23243.96327070  .00000104  00000+0  25705-3 0  9993
2 55172  87.8934 223.7439 0003095  75.3705 284.7766 13.11408225 32164
